NUSAT-50 (NANCY ROMAN)  
1 60493U 24149AB  26068.80227738  .00012094  00000+0  42252-3 0  9994
2 60493  97.3817 150.7693 0002523 238.0469 122.0527 15.29713355 86930
STARLINK-34774          
1 66485U 25263A   26068.17606973  .00031101  00000+0  11356-2 0  9991
2 66485  43.0043 353.3213 0001820 252.6515 107.4138 15.27561475 18828
